[{"OBJECT_NAME":"HORACIO","OBJECT_ID":"2024-043A","EPOCH":"2026-03-09T21:54:40.867200","MEAN_MOTION":14.98036627,"ECCENTRICITY":0.00104103,"INCLINATION":97.8349,"RA_OF_ASC_NODE":200.1753,"ARG_OF_PERICENTER":2.9871,"MEAN_ANOMALY":357.1411,"EPHEMERIS_TYPE":0,"CLASSIFICATION_TYPE":"U","NORAD_CAT_ID":59098,"ELEMENT_SET_NO":999,"REV_AT_EPOCH":10980,"BSTAR":0.00038157841,"MEAN_MOTION_DOT":4.455e-5,"MEAN_MOTION_DDOT":0},{"OBJECT_NAME":"DIADEME 2","OBJECT_ID":"1967-014A","EPOCH":"2026-03-09T06:20:41.719200","MEAN_MOTION":13.41802954,"ECCENTRICITY":0.06995329,"INCLINATION":39.4379,"RA_OF_ASC_NODE":183.1755,"ARG_OF_PERICENTER":192.951,"MEAN_ANOMALY":165.2381,"EPHEMERIS_TYPE":0,"CLASSIFICATION_TYPE":"U","NORAD_CAT_ID":2680,"ELEMENT_SET_NO":999,"REV_AT_EPOCH":86254,"BSTAR":0.00085492901,"MEAN_MOTION_DOT":2.07e-5,"MEAN_MOTION_DDOT":0}]
